{"type":"FeatureCollection","features":[{"type":"Feature","id":"haba-west-day-1","properties":{"kind":"track","day":1},"geometry":{"type":"LineString","coordinates":[[100.066272681579,27.286493852734566,3465],[100.06711942143738,27.286834996193647,3472],[100.0672444794327,27.287392308935523,3470],[100.06750239059329,27.28769363835454,3469],[100.06764287129045,27.287829257547855,3469],[100.06811988539994,27.287929756566882,3477],[100.06834820844233,27.288273917511106,3480],[100.06897861137986,27.28876761160791,3486],[100.06969350390136,27.289758352562785,3477],[100.0698040612042,27.290163030847907,3479],[100.07016532123089,27.2904397174716,3483],[100.07060579024255,27.291168523952365,3499],[100.07119780406356,27.292870385572314,3518],[100.07142579182982,27.292997539043427,3525],[100.07157524116337,27.293443540111184,3526],[100.07181907072663,27.293641604483128,3525],[100.07212509401143,27.29473041370511,3530],[100.0721075758338,27.295129979029298,3540],[100.07276589050889,27.296755984425545,3541],[100.07301944307983,27.296969387680292,3542],[100.07328070700169,27.297694589942694,3544],[100.07356359623373,27.29818258434534,3546],[100.07371815852821,27.298251651227474,3547],[100.07363316603005,27.29836631566286,3546],[100.07377255707979,27.29940709657967,3553],[100.0737638399005,27.30011654086411,3559],[100.07363107055426,27.300242939963937,3563],[100.07355496287346,27.3009080439806,3576],[100.07359209470451,27.301665097475052,3582],[100.07347877137363,27.301928037777543,3585],[100.0737495906651,27.302906457334757,3591],[100.07339478470385,27.303555803373456,3606],[100.07327509112656,27.304156282916665,3613],[100.07332848384976,27.305979430675507,3657],[100.07281919941306,27.307178294286132,3669],[100.07288508117199,27.307642651721835,3665],[100.07271065376699,27.30901451781392,3681],[100.07324156351388,27.31089952401817,3710],[100.07345521822572,27.311196913942695,3715],[100.07324323989451,27.311630342155695,3734],[100.07322194986045,27.312150606885552,3749],[100.07330141030252,27.31280724518001,3768],[100.07353836670518,27.3128458019346,3774],[100.07341272197664,27.31301981024444,3782],[100.07335782051086,27.314188415184617,3828],[100.07351917214692,27.314377930015326,3837],[100.07298029959202,27.314773723483086,3855],[100.0727307703346,27.314796186983585,3858],[100.07284317165613,27.3146762419492,3857],[100.07273345254362,27.314802054315805,3858],[100.07270218804479,27.314732652157545,3859],[100.07311910390854,27.31489894911647,3860],[100.07318087853491,27.315067509189248,3861],[100.07190339267254,27.31594819575548,3881],[100.07142579182982,27.317452831193805,3911],[100.0708281621337,27.318123299628496,3940],[100.07050319574773,27.319122087210417,3954],[100.07027462124825,27.319324677810073,3960],[100.0702578574419,27.319545205682516,3958],[100.0698989443481,27.31996614485979,3969],[100.06957649253309,27.320659579709172,3969],[100.06946618668735,27.3211935069412,3979],[100.06967204622924,27.321865651756525,4008],[100.06922646425664,27.32215222902596,4021],[100.06906662136316,27.32241324149072,4023],[100.06849070079625,27.32272982597351,4040],[100.06742930039763,27.324091382324696,4058],[100.06691599264741,27.324414337053895,4058],[100.06628424860537,27.32525998726487,4060],[100.06625675596297,27.32562694698572,4065],[100.06645440123975,27.326323315501213,4071]]}},{"type":"Feature","id":"haba-west-day-2","properties":{"kind":"track","day":2},"geometry":{"type":"LineString","coordinates":[[100.06645440123975,27.326323315501213,4071],[100.0661339610815,27.32717248611152,4061],[100.0653849542141,27.327772295102477,4065],[100.06424400955439,27.330706380307674,4081],[100.0642194505781,27.33085960149765,4083],[100.0644575804472,27.330976193770766,4084],[100.06421626545489,27.330863121896982,4083],[100.0643344502896,27.330986838787794,4083],[100.06431927904487,27.331267297267914,4081],[100.06416647695005,27.33198009431362,4082],[100.06395969539881,27.332336409017444,4081],[100.06405617110431,27.332483008503914,4083],[100.06424836814404,27.33246574178338,4078],[100.0640291813761,27.33251318335533,4083],[100.06393019109964,27.33284586109221,4085],[100.06314774043858,27.33398395590484,4096],[100.06223754957318,27.33481560833752,4107],[100.06125326268375,27.335994858294725,4128],[100.05888436920941,27.33702315017581,4164],[100.05847885273397,27.33765254728496,4180],[100.05627198144794,27.338858116418123,4202],[100.05636627785861,27.338900780305266,4203],[100.05623484961689,27.339208479970694,4208],[100.05638496950269,27.33918283134699,4208],[100.05628765560687,27.33918534591794,4208],[100.05603041499853,27.341403029859066,4249],[100.05597174167633,27.341505205258727,4249],[100.05587317049503,27.341451728716493,4249],[100.05581617355347,27.34203259460628,4248],[100.05515676923096,27.342926943674684,4264],[100.05501721054316,27.34387082979083,4283],[100.05340939387679,27.345786849036813,4357],[100.05316489376128,27.346224384382367,4378],[100.05298468284309,27.346187504008412,4384],[100.05291980691254,27.347211185842752,4324],[100.05259970203042,27.34722434543073,4313],[100.05259551107883,27.347810827195644,4284],[100.05273967981339,27.348255654796958,4266],[100.05201489664614,27.350069917738438,4234],[100.05202981643379,27.35081381164491,4227],[100.05173846147954,27.351448237895966,4217],[100.05195764824748,27.351713022217155,4210],[100.0515781994909,27.352299001067877,4207],[100.05144241265953,27.35292403958738,4215],[100.05158909596503,27.35353684052825,4227],[100.0518237054348,27.35379232093692,4233],[100.05185857415199,27.35431082546711,4241],[100.05146311596036,27.356131793931127,4253],[100.05172991193831,27.35729595646262,4268],[100.0520449038595,27.357847318053246,4288],[100.05263046361506,27.358285188674927,4314],[100.05394139327109,27.35852281562984,4355],[100.05422989837825,27.35874225385487,4369],[100.0550976768136,27.358627254143357,4338],[100.05522139370441,27.35878868959844,4330],[100.05541417747736,27.358735213056207,4324],[100.05564090795815,27.35925229266286,4309],[100.05627164617181,27.359458655118942,4299],[100.0569748878479,27.359895100817084,4280],[100.05908721126616,27.359540294855833,4255],[100.05951561033726,27.35940434038639,4248],[100.06013561971486,27.358959931880236,4235],[100.0609003007412,27.358712246641517,4233],[100.06165911443532,27.358874352648854,4230],[100.06231097504497,27.35859951004386,4222],[100.0626979675144,27.35779141075909,4206],[100.06359240040183,27.357424031943083,4182],[100.06404217332602,27.356868479400873,4165],[100.0645419023931,27.35668122768402,4151],[100.0649930164218,27.356299180537462,4133],[100.06505386903882,27.355733402073383,4124],[100.06528344936669,27.355403658002615,4122],[100.0653622392565,27.354685747995973,4113],[100.06562115624547,27.35430738888681,4110],[100.06616145372391,27.35432993620634,4108],[100.06682597100735,27.354164142161608,4107],[100.06823471747339,27.354684323072433,4110],[100.06844468414783,27.354639815166593,4110]]}},{"type":"Feature","id":"haba-west-day-3","properties":{"kind":"track","day":3},"geometry":{"type":"LineString","coordinates":[[100.06844468414783,27.354639815166593,4110],[100.06859731860459,27.354351561516523,4100],[100.06838341243565,27.35397714190185,4100],[100.06804847158492,27.353998683393,4098],[100.06758688017726,27.35431920737028,4096],[100.06679319776595,27.35413924790919,4097],[100.06603865884244,27.35431225039065,4098],[100.06573925726116,27.354108737781644,4097],[100.06563121452928,27.353344643488526,4098],[100.06607134826481,27.35173280350864,4099],[100.06651131436229,27.351503055542707,4097],[100.06683058105409,27.351114889606833,4099],[100.06748244166374,27.351105837151408,4098],[100.06773917935789,27.35096275806427,4098],[100.06834561005235,27.35032699070871,4098],[100.06871407851577,27.350114341825247,4098],[100.06894340738654,27.35011652112007,4097],[100.06909277290106,27.35025180503726,4097],[100.06921799853444,27.350130937993526,4097],[100.06954078562558,27.350133201107383,4098],[100.07024260237813,27.350364457815886,4100],[100.07067284546793,27.350750444456935,4109],[100.07094223983586,27.350786151364446,4117],[100.07149930112064,27.350697722285986,4125],[100.07218644954264,27.35041449777782,4132],[100.07227286696434,27.35008081421256,4130],[100.07264527492225,27.350067486986518,4135],[100.0728658027947,27.349897753447294,4134],[100.07311390712857,27.350435201078653,4143],[100.07351296953857,27.350346352905035,4146],[100.0743629783392,27.349928515031934,4153],[100.07520452141762,27.348862420767546,4170],[100.07588119246066,27.347357450053096,4168],[100.07626307196915,27.34703214839101,4167],[100.07661544717848,27.34686953946948,4169],[100.07745556533337,27.347617959603667,4196],[100.07785990834236,27.34755895100534,4208],[100.07816936820745,27.346943886950612,4224],[100.07850598543882,27.346744146198034,4229],[100.07859407924116,27.34607107937336,4236],[100.07846608757973,27.34482804313302,4234],[100.07943294011056,27.344353878870606,4250],[100.07937334477901,27.344288248568773,4253],[100.07985010743141,27.34376580454409,4248],[100.07993526756763,27.343186782673,4251],[100.07980258204043,27.342322608456016,4252],[100.07999720983207,27.34202966094017,4253],[100.08006258867681,27.341577457264066,4256],[100.07994406856596,27.341299261897802,4258],[100.0799439009279,27.340377252548933,4268],[100.08036844432354,27.339539900422096,4282],[100.0808662455529,27.339304201304913,4297],[100.0807816721499,27.33871973119676,4315],[100.08091955445707,27.338169794529676,4314],[100.08007457479835,27.336340360343456,4250],[100.08021078072488,27.335078800097108,4215],[100.07994482293725,27.334129214286804,4188],[100.07915910333395,27.333348020911217,4163],[100.07912767119706,27.33318004757166,4159],[100.0792897772044,27.33301450498402,4152],[100.07925784215331,27.33263681642711,4145],[100.0791098177433,27.3324819188565,4142],[100.07940511219203,27.331990906968713,4128],[100.07937686517835,27.331229159608483,4118],[100.07946261204779,27.331227650865912,4118],[100.07926136255264,27.33019122853875,4099],[100.07937267422676,27.330078911036253,4094],[100.07884838618338,27.329755034297705,4089],[100.07910914719105,27.329674400389194,4088],[100.07925432175398,27.330145379528403,4098],[100.07908810861409,27.329752938821912,4091],[100.07905416190624,27.329841116443276,4091],[100.07902516052127,27.32964674010873,4091],[100.07931509055197,27.330165999010205,4099],[100.07918659597635,27.32948555611074,4085],[100.07940041832626,27.329200403764844,4078],[100.07960435003042,27.32919638045132,4073],[100.0801788456738,27.32870629057288,4073],[100.0796330999583,27.32824344187975,4069],[100.07956638000906,27.327795010060072,4063],[100.07942254655063,27.327692080289125,4057],[100.07957015186548,27.327548749744892,4049],[100.07943159900606,27.327447412535548,4042],[100.07946630008519,27.327093528583646,4021],[100.07930838502944,27.326961178332567,4013],[100.07940947078168,27.326490031555295,3994],[100.0791946426034,27.326156683266163,3976],[100.079375943169,27.32592534273863,3973],[100.0792961474508,27.325678830966353,3967],[100.07938181050122,27.32535218819976,3965],[100.079241162166,27.325151609256864,3959],[100.07927175611258,27.324395645409822,3948],[100.07900705561042,27.323887534439564,3937],[100.07903194986284,27.32342761941254,3921],[100.0788281019777,27.32305319979787,3905],[100.07890429347754,27.3228807002306,3899],[100.07875551469624,27.322536204010248,3889],[100.07902264595032,27.32211409136653,3881],[100.078707318753,27.32090475037694,3858],[100.07870865985751,27.319143461063504,3841],[100.0784499105066,27.318398226052523,3832],[100.07797214202583,27.318304181098938,3822],[100.07755346596241,27.317846529185772,3806],[100.07762622088194,27.317601358518004,3799],[100.07736219093204,27.31734068132937,3795],[100.07655425928533,27.31566664762795,3777],[100.0765094999224,27.3149059060961,3763],[100.0759463198483,27.313370928168297,3727],[100.0757438968867,27.31320940889418,3726],[100.07580885663629,27.312949234619737,3717],[100.07564524188638,27.312980918213725,3712],[100.07546167820692,27.312835324555635,3705],[100.07551071234047,27.312223948538303,3691],[100.07521994411945,27.311606453731656,3685],[100.07522346451879,27.311285343021154,3682],[100.07447127252817,27.310485625639558,3664],[100.07423649542034,27.309719184413552,3655],[100.07405645214021,27.307747341692448,3628],[100.07443447597325,27.305831406265497,3601],[100.07468031719327,27.305492693558335,3595],[100.0746410060674,27.304941080510616,3587],[100.0747977476567,27.304391646757722,3580],[100.07468895055354,27.304231552407146,3577],[100.07435115985572,27.304278323426843,3574],[100.07413574494421,27.304042791947722,3576],[100.07419810630381,27.30268961749971,3569],[100.07374330423772,27.30195133946836,3566],[100.07357130758464,27.30090184137225,3570],[100.07365437224507,27.300263727083802,3560],[100.07379887625575,27.300111008808017,3555],[100.0736184976995,27.29827579110861,3540],[100.07302396930754,27.296965029090643,3535],[100.07279438897967,27.29678657837212,3532],[100.0725026987493,27.296162880957127,3531],[100.07235241122544,27.295513954013586,3526],[100.07214806042612,27.29518630541861,3530],[100.07186525501311,27.29363154619932,3514],[100.07162645459175,27.29347941465676,3515],[100.07146904245019,27.293027630075812,3514],[100.07120844908059,27.292834846302867,3506],[100.07064023986459,27.291211439296603,3486],[100.0699248444289,27.290222542360425,3465],[100.06967808119953,27.28961292654276,3462],[100.06818920373917,27.287998655810952,3463],[100.06752611137927,27.287713587284088,3454],[100.06722738035023,27.287332294508815,3455],[100.06713735871017,27.286883778870106,3458],[100.0659806560725,27.2863729018718,3454]]}},{"type":"Feature","id":"start-end","properties":{"kind":"node","id":"start-end","name":"咖啡营地（起点/终点）","category":"起终点","dayLabel":"第1天 / 第3天","elevation":3465},"geometry":{"type":"Point","coordinates":[100.066272681579,27.286493852734566,3465]}},{"type":"Feature","id":"double-lake-camp","properties":{"kind":"node","id":"double-lake-camp","name":"双湖营地","category":"营地","dayLabel":"第1天","elevation":4071},"geometry":{"type":"Point","coordinates":[100.06645440123975,27.326323315501213,4071]}},{"type":"Feature","id":"double-lake-pass","properties":{"kind":"node","id":"double-lake-pass","name":"双湖垭口","category":"垭口","dayLabel":"第2天","elevation":4378},"geometry":{"type":"Point","coordinates":[100.05316489376128,27.346224384382367,4378]}},{"type":"Feature","id":"couple-lake-pass","properties":{"kind":"node","id":"couple-lake-pass","name":"夫妻海垭口","category":"垭口","dayLabel":"第2天","elevation":4369},"geometry":{"type":"Point","coordinates":[100.05422989837825,27.35874225385487,4369]}},{"type":"Feature","id":"black-lake-pass","properties":{"kind":"node","id":"black-lake-pass","name":"黑海垭口","category":"垭口","dayLabel":"第2天","elevation":4211},"geometry":{"type":"Point","coordinates":[100.06257148459554,27.357946559786797,4211]}},{"type":"Feature","id":"black-lake-camp","properties":{"kind":"node","id":"black-lake-camp","name":"黑海营地","category":"营地","dayLabel":"第2天","elevation":4110},"geometry":{"type":"Point","coordinates":[100.06844468414783,27.354639815166593,4110]}},{"type":"Feature","id":"long-lake","properties":{"kind":"node","id":"long-lake","name":"长湖","category":"景点","dayLabel":"第3天","elevation":4168},"geometry":{"type":"Point","coordinates":[100.07539789192379,27.348398482427,4168]}},{"type":"Feature","id":"chicken-toe-pass","properties":{"kind":"node","id":"chicken-toe-pass","name":"鸡趾垭口","category":"垭口","dayLabel":"第3天","elevation":4318},"geometry":{"type":"Point","coordinates":[100.0808178819716,27.338658710941672,4318]}}]}
