{"type":"FeatureCollection","metadata":{"source":"乌孙古道 KML","distanceMeters":106869.224,"elevationGainMeters":6458,"elevationLossMeters":6553},"features":[{"type":"Feature","id":"wusun-track","properties":{"kind":"track"},"geometry":{"type":"LineString","coordinates":[[82.19876,42.91528,2023],[82.198655,42.914976,2022],[82.198811,42.915117,2025],[82.198816,42.915009,2025],[82.197898,42.91476,2019],[82.197482,42.914428,2014],[82.197483,42.9136,1998],[82.198048,42.912721,2004],[82.198289,42.912642,2005],[82.199441,42.911341,2000],[82.199226,42.910066,2014],[82.199339,42.909485,2019],[82.199006,42.908874,2014],[82.19896,42.908396,2012],[82.199578,42.907387,2012],[82.199975,42.90556,2025],[82.200224,42.905442,2025],[82.200311,42.904621,2032],[82.201358,42.903231,2037],[82.202186,42.902554,2046],[82.202852,42.902475,2048],[82.2037,42.901586,2060],[82.202747,42.902915,2048],[82.202531,42.904527,2036],[82.202401,42.904552,2036],[82.202659,42.904413,2046],[82.20279,42.902755,2048],[82.204626,42.900473,2066],[82.205064,42.899566,2068],[82.205116,42.898643,2070],[82.205663,42.898407,2075],[82.206269,42.897774,2082],[82.206232,42.897477,2076],[82.206589,42.897049,2102],[82.206715,42.895787,2096],[82.206433,42.895641,2095],[82.206745,42.895117,2100],[82.210135,42.892103,2139],[82.210343,42.891467,2146],[82.210206,42.890847,2154],[82.210508,42.890412,2153],[82.210567,42.889874,2155],[82.210247,42.889688,2156],[82.21006,42.88903,2150],[82.210664,42.88872,2154],[82.211954,42.888622,2161],[82.213964,42.887673,2171],[82.214452,42.88673,2164],[82.214927,42.886245,2161],[82.214981,42.885769,2156],[82.215826,42.884603,2187],[82.216122,42.883452,2180],[82.21749,42.881723,2191],[82.218429,42.880956,2203],[82.218864,42.880225,2197],[82.219091,42.879285,2219],[82.219325,42.879208,2222],[82.220102,42.879511,2238],[82.220951,42.879266,2250],[82.221418,42.878376,2255],[82.22192,42.878022,2259],[82.222824,42.876663,2260],[82.223464,42.876634,2275],[82.224411,42.875843,2287],[82.224958,42.875885,2291],[82.225507,42.875624,2290],[82.226656,42.874086,2288],[82.227347,42.873648,2289],[82.228554,42.873232,2306],[82.231846,42.870298,2340],[82.23306,42.86986,2349],[82.234112,42.869801,2368],[82.23408,42.869444,2358],[82.2354,42.869085,2373],[82.236326,42.868582,2386],[82.23788,42.868225,2405],[82.238662,42.868279,2416],[82.241366,42.867525,2425],[82.245132,42.866801,2448],[82.246116,42.865567,2460],[82.246836,42.86503,2462],[82.248241,42.863135,2478],[82.250184,42.861989,2484],[82.252088,42.86023,2501],[82.252579,42.859407,2500],[82.252693,42.858725,2494],[82.25305,42.85809,2490],[82.252965,42.857077,2478],[82.253452,42.856777,2478],[82.254284,42.853812,2480],[82.255668,42.851735,2481],[82.25585,42.851047,2475],[82.256218,42.850531,2470],[82.256646,42.849314,2483],[82.256576,42.848915,2496],[82.25688,42.847129,2498],[82.257617,42.845466,2533],[82.258668,42.844534,2538],[82.26031,42.844078,2542],[82.26031,42.843771,2537],[82.261411,42.842518,2526],[82.261869,42.841071,2548],[82.262246,42.837942,2567],[82.263104,42.835815,2581],[82.26425,42.834364,2609],[82.265332,42.831985,2649],[82.265721,42.831616,2671],[82.265733,42.831244,2653],[82.268851,42.827844,2658],[82.269311,42.826933,2676],[82.269032,42.826291,2679],[82.269109,42.826007,2680],[82.270368,42.825072,2696],[82.270717,42.824444,2704],[82.270745,42.823962,2708],[82.271818,42.823062,2710],[82.272015,42.822364,2715],[82.271909,42.821685,2716],[82.273114,42.819697,2712],[82.27432,42.818827,2728],[82.27466,42.818401,2722],[82.275097,42.818211,2725],[82.275305,42.817743,2726],[82.27591,42.817114,2741],[82.276457,42.815608,2742],[82.277589,42.813466,2754],[82.277866,42.81072,2781],[82.278497,42.809078,2792],[82.279129,42.808388,2801],[82.278812,42.807987,2802],[82.277889,42.808566,2799],[82.277958,42.808664,2796],[82.278372,42.808044,2806],[82.279359,42.807663,2812],[82.280038,42.807012,2829],[82.279977,42.806749,2840],[82.28035,42.805774,2868],[82.277655,42.804692,2923],[82.275224,42.804119,2950],[82.272502,42.801916,2990],[82.272105,42.800998,3003],[82.27188,42.799785,3006],[82.270309,42.798083,3018],[82.270025,42.796512,3033],[82.268976,42.793945,3065],[82.267585,42.792653,3080],[82.267212,42.792031,3093],[82.265784,42.791157,3104],[82.266235,42.790834,3107],[82.266251,42.790342,3111],[82.265187,42.789138,3131],[82.264712,42.788143,3144],[82.264276,42.787832,3152],[82.264617,42.787209,3159],[82.264538,42.78684,3159],[82.265064,42.785544,3189],[82.264961,42.784848,3198],[82.26519,42.783929,3222],[82.264782,42.782302,3244],[82.264156,42.781157,3256],[82.264084,42.78028,3274],[82.263867,42.779957,3270],[82.264613,42.778642,3302],[82.264701,42.777644,3302],[82.265021,42.777232,3299],[82.264942,42.776777,3306],[82.266322,42.774407,3334],[82.266326,42.771275,3368],[82.267193,42.770367,3403],[82.267327,42.770017,3396],[82.267139,42.76948,3399],[82.268203,42.767285,3438],[82.268056,42.766232,3454],[82.268395,42.765436,3456],[82.269132,42.76465,3463],[82.270486,42.762592,3500],[82.27077,42.761806,3501],[82.271561,42.760872,3493],[82.271745,42.76004,3499],[82.272143,42.759546,3504],[82.272269,42.758897,3524],[82.27258,42.75838,3528],[82.273082,42.758062,3508],[82.273584,42.757175,3508],[82.273947,42.757041,3512],[82.274286,42.756559,3522],[82.27511,42.756541,3557],[82.275329,42.756351,3564],[82.275545,42.75655,3578],[82.275661,42.756217,3582],[82.275845,42.756278,3592],[82.275871,42.75598,3597],[82.276108,42.756157,3614],[82.276118,42.755802,3627],[82.2765,42.75566,3646],[82.276515,42.755114,3666],[82.275916,42.754484,3699],[82.27583,42.753969,3712],[82.27574,42.754205,3705],[82.275517,42.753879,3724],[82.275437,42.753484,3726],[82.275621,42.75298,3732],[82.275511,42.75253,3761],[82.275786,42.752322,3762],[82.277067,42.752715,3753],[82.277165,42.752625,3760],[82.277187,42.75275,3742],[82.278312,42.752236,3715],[82.28004,42.751965,3694],[82.280544,42.751578,3677],[82.280554,42.751214,3675],[82.280801,42.750962,3659],[82.280767,42.751241,3659],[82.281009,42.751555,3658],[82.281558,42.75157,3632],[82.281909,42.751812,3614],[82.283495,42.751656,3582],[82.284416,42.750946,3571],[82.285283,42.750819,3558],[82.285366,42.750642,3542],[82.286911,42.750408,3516],[82.287373,42.750254,3517],[82.287548,42.750018,3517],[82.288151,42.750199,3510],[82.288948,42.749923,3487],[82.290714,42.748893,3462],[82.291492,42.74824,3438],[82.293178,42.747649,3408],[82.293517,42.74736,3397],[82.293402,42.747093,3405],[82.294507,42.746542,3380],[82.295147,42.746527,3378],[82.295356,42.746735,3373],[82.296058,42.74687,3359],[82.296949,42.746546,3348],[82.297319,42.746621,3346],[82.29815,42.746419,3334],[82.299452,42.745669,3311],[82.299964,42.745577,3313],[82.299977,42.745286,3310],[82.300691,42.744689,3306],[82.300941,42.744176,3291],[82.302416,42.742505,3269],[82.302482,42.741977,3254],[82.303566,42.741111,3237],[82.304287,42.738421,3161],[82.304864,42.738062,3167],[82.304771,42.73789,3153],[82.30527,42.737063,3106],[82.306771,42.736534,3143],[82.307669,42.735245,3120],[82.308582,42.735003,3162],[82.308615,42.734804,3135],[82.308389,42.734548,3106],[82.308563,42.734417,3113],[82.309471,42.734023,3066],[82.310223,42.734057,3065],[82.310856,42.733758,3036],[82.310682,42.734201,3056],[82.311053,42.734559,3053],[82.311182,42.735127,3084],[82.311411,42.735061,3074],[82.31206,42.734086,3019],[82.313009,42.733156,3003],[82.315248,42.732353,2986],[82.315783,42.73231,3002],[82.316058,42.732107,3025],[82.316217,42.731641,2990],[82.316978,42.7316,3036],[82.31828,42.730068,2987],[82.319116,42.730006,2990],[82.319989,42.730258,2989],[82.323969,42.72885,2960],[82.324711,42.72886,2941],[82.32495,42.729023,2938],[82.325561,42.728816,2928],[82.326361,42.728405,2907],[82.326682,42.727987,2895],[82.326427,42.727437,2875],[82.326406,42.726783,2844],[82.327628,42.72609,2830],[82.32901,42.726295,2798],[82.329765,42.726772,2788],[82.330596,42.72639,2770],[82.330732,42.72558,2731],[82.330328,42.725098,2715],[82.330676,42.724683,2697],[82.330716,42.72432,2686],[82.333059,42.722282,2635],[82.333674,42.722052,2629],[82.333774,42.721587,2625],[82.334455,42.720867,2622],[82.334682,42.720111,2610],[82.33552,42.719849,2568],[82.335946,42.719321,2543],[82.336395,42.71933,2544],[82.336304,42.719182,2525],[82.337002,42.719043,2527],[82.337185,42.718586,2495],[82.337472,42.71841,2490],[82.337501,42.717997,2473],[82.337953,42.717679,2463],[82.339519,42.717691,2438],[82.339184,42.717248,2403],[82.339902,42.71673,2375],[82.33974,42.716526,2366],[82.34056,42.716259,2372],[82.341004,42.716325,2405],[82.340838,42.716142,2370],[82.340907,42.715836,2356],[82.341426,42.715094,2361],[82.341692,42.713755,2364],[82.342595,42.712747,2360],[82.343295,42.711475,2357],[82.344429,42.71093,2335],[82.344842,42.711083,2335],[82.345758,42.710818,2327],[82.346348,42.710848,2325],[82.348139,42.709875,2324],[82.348636,42.70926,2305],[82.349307,42.707652,2279],[82.350942,42.705849,2254],[82.35139,42.705611,2243],[82.352177,42.70554,2241],[82.353474,42.704751,2233],[82.354065,42.703923,2210],[82.354173,42.703101,2199],[82.354802,42.702955,2200],[82.355141,42.702662,2214],[82.355125,42.702378,2205],[82.355448,42.702252,2221],[82.355599,42.700889,2218],[82.356492,42.699488,2186],[82.357249,42.698684,2186],[82.358268,42.697038,2164],[82.358904,42.696409,2144],[82.359544,42.696223,2141],[82.360051,42.695493,2129],[82.360049,42.695309,2118],[82.359787,42.695324,2112],[82.359749,42.695185,2112],[82.360163,42.694903,2105],[82.360418,42.694458,2070],[82.360147,42.69435,2071],[82.360444,42.693614,2029],[82.359646,42.69357,2040],[82.357935,42.692792,2049],[82.357418,42.692315,2052],[82.356537,42.690859,2044],[82.354335,42.688986,2070],[82.354367,42.688807,2070],[82.353094,42.687923,2061],[82.351402,42.687013,2026],[82.348467,42.685825,2056],[82.348063,42.685164,2060],[82.346608,42.683752,2030],[82.345243,42.682925,2035],[82.344332,42.682037,2035],[82.344385,42.681651,2035],[82.344203,42.681561,2039],[82.343786,42.680668,2031],[82.343855,42.680172,2033],[82.34362,42.679407,2016],[82.342932,42.678663,2022],[82.34232,42.678541,2021],[82.342342,42.67868,2021],[82.338948,42.676984,2014],[82.337517,42.676672,2026],[82.336253,42.676128,2022],[82.334814,42.675015,2050],[82.333028,42.672868,2032],[82.332473,42.672427,2015],[82.330518,42.67242,2004],[82.329203,42.672229,2045],[82.328957,42.671485,2069],[82.329288,42.670836,2038],[82.329022,42.669616,2012],[82.32687,42.668982,1994],[82.326676,42.668209,1987],[82.326113,42.668225,1985],[82.326411,42.667829,2000],[82.325988,42.667569,2003],[82.325597,42.666485,2024],[82.326457,42.665963,2035],[82.327471,42.66585,2042],[82.327455,42.665617,2057],[82.327607,42.665725,2042],[82.328416,42.665338,2068],[82.32847,42.665141,2068],[82.328536,42.665253,2075],[82.328871,42.665147,2066],[82.329839,42.664169,2059],[82.33114,42.664221,2052],[82.332359,42.663765,2083],[82.332996,42.663847,2067],[82.334806,42.662964,2110],[82.335974,42.663238,2084],[82.336698,42.663216,2085],[82.337026,42.663418,2078],[82.338809,42.66316,2085],[82.340274,42.663664,2103],[82.341699,42.663666,2103],[82.342614,42.663425,2111],[82.343753,42.66351,2122],[82.347612,42.663001,2120],[82.34799,42.662648,2109],[82.350452,42.662208,2129],[82.35133,42.66173,2136],[82.352263,42.661484,2150],[82.35385,42.661454,2154],[82.354527,42.661631,2161],[82.355039,42.661403,2172],[82.355749,42.66151,2201],[82.357364,42.662824,2194],[82.358221,42.663158,2210],[82.358163,42.663395,2197],[82.359148,42.664098,2205],[82.359873,42.664337,2204],[82.360744,42.664893,2209],[82.361839,42.665176,2209],[82.362706,42.664997,2209],[82.363883,42.665073,2216],[82.364584,42.665515,2229],[82.365763,42.665921,2213],[82.367068,42.665797,2224],[82.367404,42.665501,2241],[82.369399,42.665344,2262],[82.372143,42.664372,2305],[82.373794,42.664288,2285],[82.374533,42.663822,2281],[82.375988,42.663753,2294],[82.376772,42.664063,2297],[82.377141,42.663973,2286],[82.379603,42.662073,2312],[82.379775,42.662175,2307],[82.380056,42.661418,2318],[82.381433,42.66035,2324],[82.382855,42.658247,2338],[82.383035,42.657873,2334],[82.383,42.657322,2329],[82.384077,42.655534,2353],[82.384034,42.655072,2360],[82.385004,42.653928,2355],[82.385229,42.65326,2358],[82.384956,42.652856,2358],[82.383977,42.652159,2391],[82.384083,42.651244,2378],[82.383958,42.650979,2395],[82.384117,42.650501,2384],[82.385237,42.649558,2404],[82.384988,42.648915,2410],[82.384629,42.64886,2432],[82.384536,42.648593,2426],[82.384691,42.647607,2425],[82.384329,42.646662,2434],[82.384494,42.645513,2415],[82.38488,42.646029,2427],[82.385111,42.645573,2427],[82.385771,42.645533,2428],[82.385951,42.645053,2432],[82.384667,42.643088,2490],[82.38363,42.641954,2475],[82.383838,42.640829,2506],[82.383058,42.639255,2535],[82.382905,42.637685,2562],[82.382486,42.636791,2605],[82.382425,42.636078,2611],[82.381356,42.63396,2631],[82.380902,42.633617,2623],[82.380475,42.631786,2665],[82.380674,42.630882,2674],[82.380093,42.628428,2682],[82.380651,42.627634,2681],[82.380704,42.626866,2686],[82.381957,42.626189,2687],[82.382701,42.626376,2698],[82.383052,42.625088,2708],[82.382664,42.624325,2726],[82.382208,42.624153,2737],[82.381589,42.623237,2779],[82.381113,42.622961,2792],[82.381276,42.622299,2802],[82.380855,42.621754,2801],[82.381362,42.620571,2826],[82.381805,42.620222,2834],[82.383193,42.619951,2851],[82.3844,42.618762,2850],[82.384452,42.618472,2840],[82.3851,42.618173,2840],[82.385615,42.617685,2833],[82.386366,42.616462,2848],[82.387558,42.6157,2850],[82.389136,42.615864,2870],[82.390192,42.616429,2861],[82.390401,42.616959,2872],[82.391006,42.617035,2876],[82.393296,42.616256,2940],[82.394397,42.616148,2986],[82.394632,42.615815,2995],[82.395237,42.615853,3008],[82.395814,42.616366,3019],[82.396038,42.616373,3026],[82.39749,42.615762,3048],[82.398873,42.615539,3042],[82.399535,42.615028,3042],[82.399417,42.615066,3042],[82.40004,42.614839,3029],[82.402162,42.614946,3021],[82.403281,42.614424,3025],[82.403883,42.614018,3026],[82.404599,42.613169,3022],[82.405434,42.611679,3030],[82.40586,42.610408,3006],[82.406142,42.608682,3020],[82.406024,42.60775,3022],[82.406482,42.606746,3033],[82.406884,42.604369,3054],[82.406836,42.603408,3058],[82.406615,42.602894,3071],[82.407039,42.600993,3078],[82.405957,42.600053,3088],[82.40509,42.598416,3074],[82.404766,42.595541,3064],[82.404521,42.595205,3065],[82.403693,42.594726,3068],[82.402204,42.594305,3060],[82.401612,42.593914,3058],[82.400654,42.593934,3046],[82.400599,42.593733,3040],[82.399981,42.593617,3028],[82.400731,42.593971,3047],[82.401031,42.59344,3044],[82.401058,42.592645,3035],[82.401296,42.592728,3042],[82.401446,42.592475,3029],[82.401259,42.592549,3029],[82.401226,42.592698,3035],[82.401352,42.592682,3042],[82.401154,42.592915,3035],[82.399839,42.593706,3017],[82.399323,42.593815,3023],[82.399238,42.594128,3028],[82.399303,42.594012,3011],[82.3975,42.594653,3029],[82.396292,42.59459,3014],[82.392905,42.592751,3051],[82.391873,42.591876,3037],[82.391813,42.591673,3033],[82.392071,42.591326,3024],[82.391818,42.590972,3015],[82.389069,42.589601,3022],[82.387509,42.587397,3041],[82.387318,42.586926,3042],[82.387273,42.586028,3039],[82.386231,42.58493,3043],[82.386275,42.584272,3023],[82.386115,42.584013,3031],[82.38574,42.583651,3027],[82.384482,42.582995,3046],[82.384922,42.579181,2998],[82.384897,42.578693,2992],[82.384571,42.578268,3000],[82.384601,42.577912,3021],[82.384955,42.577826,3008],[82.384931,42.576717,3062],[82.385362,42.57632,3032],[82.384943,42.576434,3072],[82.385372,42.576241,3065],[82.385251,42.576315,3032],[82.385236,42.57597,3071],[82.386192,42.575177,3007],[82.386845,42.574867,2996],[82.387747,42.573753,2996],[82.388428,42.57329,3005],[82.388503,42.572921,3006],[82.388796,42.572697,3011],[82.388551,42.572328,3028],[82.388841,42.572734,3011],[82.390545,42.57184,2995],[82.391966,42.570704,3040],[82.392316,42.570919,3052],[82.392392,42.570547,3064],[82.391864,42.569121,3083],[82.39196,42.568674,3107],[82.391247,42.568158,3142],[82.391874,42.567924,3129],[82.391504,42.567677,3158],[82.391122,42.566892,3206],[82.391404,42.566428,3199],[82.392374,42.565887,3207],[82.392137,42.56569,3207],[82.392352,42.565498,3207],[82.392205,42.565146,3218],[82.391791,42.564783,3235],[82.390892,42.564399,3267],[82.390496,42.563429,3281],[82.389646,42.5631,3278],[82.388727,42.563136,3297],[82.387714,42.562744,3298],[82.386611,42.561851,3288],[82.386791,42.561499,3291],[82.386572,42.560859,3282],[82.386956,42.56078,3277],[82.386498,42.559584,3284],[82.386654,42.559478,3286],[82.386296,42.558742,3306],[82.386255,42.557943,3326],[82.387071,42.557275,3356],[82.388641,42.556756,3405],[82.389054,42.55572,3457],[82.388658,42.555508,3463],[82.388352,42.55564,3468],[82.387946,42.555163,3471],[82.388253,42.55467,3476],[82.388128,42.554289,3497],[82.388248,42.554012,3501],[82.387849,42.553239,3534],[82.386741,42.552534,3562],[82.386757,42.551891,3565],[82.386461,42.551636,3577],[82.386415,42.551365,3587],[82.38571,42.550998,3607],[82.385214,42.551242,3617],[82.384908,42.551035,3624],[82.384918,42.55075,3626],[82.385141,42.550555,3633],[82.385068,42.549789,3648],[82.385627,42.549072,3699],[82.387918,42.548254,3805],[82.388095,42.548472,3809],[82.388036,42.548256,3805],[82.388142,42.548435,3805],[82.388585,42.548047,3822],[82.388978,42.547941,3829],[82.391581,42.547902,3810],[82.392739,42.548343,3824],[82.395513,42.547453,3739],[82.395576,42.547165,3718],[82.395985,42.546932,3706],[82.396765,42.545949,3658],[82.397186,42.545735,3659],[82.39751,42.544816,3620],[82.397882,42.544798,3623],[82.397741,42.544272,3591],[82.398542,42.542899,3547],[82.398018,42.542123,3548],[82.397955,42.54157,3557],[82.395634,42.539044,3550],[82.394252,42.537888,3506],[82.393852,42.537333,3523],[82.392443,42.536487,3485],[82.392215,42.535514,3454],[82.3939,42.52975,3375],[82.394323,42.528946,3348],[82.395297,42.52794,3340],[82.395246,42.527651,3344],[82.394733,42.527234,3318],[82.395013,42.526515,3301],[82.395065,42.525252,3274],[82.396215,42.523606,3266],[82.396168,42.522961,3256],[82.396355,42.522486,3241],[82.396725,42.522,3224],[82.398225,42.521002,3214],[82.399235,42.519856,3174],[82.399558,42.519038,3177],[82.399665,42.518167,3166],[82.400174,42.517358,3158],[82.40075,42.516835,3174],[82.400519,42.516872,3160],[82.401617,42.516323,3163],[82.402759,42.515156,3143],[82.406696,42.51259,3087],[82.407229,42.511858,3084],[82.409989,42.511042,3052],[82.411904,42.510049,3036],[82.412829,42.50924,3024],[82.414415,42.508665,3017],[82.415116,42.507851,3009],[82.416188,42.507095,3007],[82.417968,42.506358,2989],[82.418666,42.505879,2989],[82.419294,42.505951,2982],[82.422245,42.504923,3007],[82.422701,42.504382,2978],[82.423288,42.50405,2995],[82.423275,42.503288,2958],[82.424076,42.502423,2953],[82.424568,42.502073,2951],[82.42548,42.501898,2947],[82.425479,42.501663,2945],[82.426692,42.500559,2944],[82.427837,42.499856,2943],[82.428412,42.498573,2922],[82.43224,42.497778,2916],[82.432989,42.497326,2910],[82.433013,42.496575,2906],[82.433956,42.496039,2913],[82.435085,42.495773,2911],[82.436114,42.495914,2907],[82.437515,42.495848,2896],[82.438337,42.495317,2888],[82.440054,42.494953,2892],[82.440643,42.494639,2890],[82.443184,42.495398,2895],[82.444597,42.495344,2892],[82.445237,42.49557,2889],[82.446958,42.496851,2886],[82.448085,42.496963,2862],[82.448687,42.497192,2869],[82.449349,42.498606,2848],[82.449166,42.499655,2843],[82.449324,42.500176,2836],[82.449223,42.500835,2843],[82.449788,42.501244,2836],[82.450448,42.501356,2833],[82.451107,42.502047,2828],[82.451774,42.502399,2816],[82.452329,42.503036,2820],[82.453577,42.503901,2820],[82.454329,42.504159,2817],[82.455942,42.504342,2791],[82.457417,42.504311,2785],[82.458094,42.504678,2784],[82.459095,42.504907,2787],[82.461664,42.505013,2769],[82.462775,42.504606,2762],[82.4644,42.504611,2767],[82.466488,42.504289,2762],[82.466951,42.503916,2744],[82.467353,42.503888,2741],[82.467789,42.503507,2732],[82.468295,42.503368,2729],[82.469121,42.502568,2733],[82.469738,42.502332,2720],[82.471216,42.501182,2721],[82.473006,42.500646,2711],[82.474303,42.500585,2702],[82.474855,42.500257,2699],[82.475092,42.499858,2711],[82.476793,42.499156,2711],[82.477148,42.498698,2699],[82.477946,42.498747,2677],[82.478691,42.4983,2680],[82.479675,42.498141,2682],[82.481362,42.496806,2673],[82.48233,42.496251,2668],[82.482977,42.495308,2664],[82.484119,42.494326,2663],[82.484765,42.493508,2667],[82.484886,42.492843,2649],[82.484719,42.492435,2650],[82.484801,42.491889,2653],[82.485048,42.491601,2659],[82.484933,42.491207,2656],[82.485029,42.490379,2643],[82.484711,42.489866,2660],[82.484933,42.489455,2650],[82.485974,42.488896,2633],[82.486175,42.487866,2639],[82.486864,42.486399,2612],[82.487437,42.485669,2600],[82.487578,42.485187,2597],[82.487422,42.484799,2601],[82.487765,42.483993,2596],[82.488304,42.483339,2601],[82.488401,42.482848,2599],[82.489234,42.482209,2598],[82.489227,42.481812,2607],[82.490498,42.480831,2593],[82.491329,42.479304,2589],[82.491506,42.478354,2583],[82.491926,42.477843,2564],[82.492095,42.476703,2595],[82.491349,42.476225,2595],[82.491413,42.475136,2565],[82.490985,42.473897,2560],[82.491656,42.473295,2556],[82.492733,42.473031,2550],[82.493449,42.472649,2549],[82.494318,42.471683,2565],[82.49437,42.47141,2568],[82.494104,42.470867,2574],[82.493718,42.470627,2566],[82.493398,42.469966,2593],[82.492894,42.46964,2573],[82.492652,42.469228,2554],[82.493234,42.468617,2536],[82.494314,42.468016,2553],[82.49487,42.466935,2547],[82.493749,42.465783,2543],[82.492472,42.465336,2550],[82.492138,42.465005,2551],[82.490705,42.46428,2547],[82.489104,42.462849,2545],[82.488342,42.460264,2525],[82.488391,42.459858,2512],[82.488701,42.459429,2520],[82.488069,42.458695,2513],[82.487773,42.4574,2519],[82.487168,42.456879,2518],[82.486292,42.45652,2527],[82.484466,42.456518,2503],[82.484044,42.456255,2503],[82.483846,42.455582,2491],[82.48442,42.454796,2479],[82.484344,42.453763,2493],[82.483421,42.453034,2498],[82.482869,42.452351,2493],[82.481985,42.451767,2495],[82.480721,42.449536,2481],[82.480647,42.448935,2478],[82.480378,42.448924,2487],[82.480178,42.448698,2479],[82.480141,42.448405,2474],[82.480384,42.448352,2474],[82.479954,42.448203,2477],[82.478776,42.447204,2462],[82.478493,42.446494,2469],[82.477964,42.445844,2472],[82.477765,42.44521,2469],[82.47791,42.444403,2459],[82.47755,42.443646,2445],[82.477422,42.443742,2445],[82.477627,42.443591,2445],[82.4774,42.443711,2445],[82.47738,42.442718,2445],[82.478422,42.441729,2447],[82.478249,42.440476,2479],[82.477997,42.44021,2468],[82.477346,42.439994,2454],[82.476644,42.439957,2448],[82.47603,42.440253,2427],[82.475154,42.440233,2416],[82.474975,42.440514,2412],[82.474602,42.440578,2412],[82.473737,42.44032,2433],[82.473515,42.439683,2410],[82.473632,42.438032,2422],[82.474118,42.437249,2401],[82.474409,42.436112,2384],[82.474421,42.434404,2395],[82.474105,42.433725,2379],[82.474373,42.432554,2389],[82.47493,42.43179,2366],[82.476455,42.431066,2373],[82.477128,42.429499,2403],[82.476628,42.428581,2404],[82.476221,42.428297,2379],[82.475867,42.427691,2367],[82.475738,42.425337,2360],[82.473685,42.423409,2337],[82.473676,42.422984,2339],[82.473357,42.422639,2342],[82.473641,42.422138,2352],[82.473442,42.421866,2334],[82.47288,42.421634,2339],[82.473022,42.421021,2337],[82.472712,42.42067,2331],[82.472727,42.420215,2327],[82.472279,42.419821,2319],[82.472124,42.419023,2318],[82.470848,42.418846,2331],[82.470191,42.417833,2317],[82.470349,42.417338,2297],[82.470189,42.416804,2298],[82.469866,42.416655,2303],[82.469068,42.415732,2296],[82.468988,42.41519,2313],[82.469426,42.414328,2288],[82.469381,42.4136,2304],[82.468639,42.412824,2290],[82.46864,42.412422,2289],[82.468312,42.412087,2291],[82.468906,42.410275,2262],[82.469876,42.40925,2260],[82.470351,42.408452,2244],[82.470201,42.407613,2261],[82.469901,42.407072,2267],[82.469849,42.406352,2282],[82.470126,42.405688,2254],[82.470558,42.405305,2239],[82.471299,42.403283,2248],[82.471927,42.403129,2249],[82.472344,42.402608,2239],[82.472449,42.401435,2240],[82.472696,42.400944,2251],[82.472412,42.400503,2237],[82.472479,42.399806,2258],[82.471898,42.399523,2236],[82.471598,42.399048,2234],[82.471736,42.398577,2230],[82.471258,42.398329,2222],[82.471039,42.397943,2209],[82.471421,42.397669,2212],[82.471841,42.396759,2205],[82.472512,42.396431,2197],[82.47313,42.39557,2200],[82.473596,42.395443,2206],[82.472977,42.394512,2214],[82.472577,42.393033,2223],[82.471996,42.391955,2212],[82.471133,42.391181,2194],[82.469644,42.3908,2201],[82.468951,42.39046,2207],[82.469133,42.390371,2196],[82.46845,42.390293,2198],[82.467904,42.389553,2187],[82.466697,42.389352,2196],[82.465465,42.38847,2180],[82.46557,42.386709,2177],[82.465283,42.385762,2172],[82.465526,42.384938,2166],[82.465446,42.38419,2162],[82.465631,42.384023,2160],[82.466548,42.383871,2175],[82.467459,42.382077,2140],[82.467222,42.381696,2133],[82.46646,42.381392,2148],[82.466365,42.380832,2149],[82.466757,42.379946,2147],[82.467044,42.378654,2143],[82.467732,42.377293,2136],[82.467564,42.375774,2163],[82.467939,42.375246,2160],[82.466756,42.374307,2151],[82.466626,42.373828,2137],[82.466921,42.373064,2133],[82.467255,42.372823,2149],[82.467365,42.372309,2126],[82.467596,42.372065,2117],[82.469568,42.371019,2128],[82.470522,42.370847,2130],[82.471944,42.369959,2114],[82.472632,42.369292,2103],[82.47288,42.368508,2107],[82.473681,42.367688,2102],[82.473912,42.366637,2130],[82.473235,42.365829,2122],[82.473229,42.36528,2104],[82.474136,42.364737,2090],[82.475073,42.363033,2081],[82.47424,42.3625,2091],[82.47393,42.361137,2110],[82.473527,42.360861,2114],[82.473406,42.359991,2099],[82.47282,42.359579,2092],[82.472521,42.358802,2076],[82.472726,42.357716,2066],[82.473777,42.356667,2068],[82.473484,42.354902,2095],[82.473521,42.354178,2106],[82.473737,42.353946,2123],[82.474374,42.353757,2110],[82.474723,42.353297,2123],[82.47464,42.3525,2118],[82.475438,42.351786,2087],[82.476209,42.351606,2070],[82.476734,42.350729,2063],[82.476472,42.350416,2058],[82.475931,42.350436,2053],[82.475094,42.351206,2059],[82.473628,42.35172,2044],[82.472943,42.351784,2043],[82.472608,42.352198,2053],[82.471822,42.352111,2053],[82.471414,42.351839,2048],[82.470966,42.351183,2065],[82.471113,42.350386,2065],[82.472277,42.348726,2076],[82.472298,42.347465,2118],[82.472858,42.346559,2057],[82.472902,42.346181,2070],[82.474568,42.345582,2028],[82.475488,42.344761,2052],[82.476278,42.34508,2052],[82.476949,42.344055,2041],[82.477232,42.343289,2041],[82.476887,42.342738,2015],[82.477007,42.342514,2006],[82.477351,42.342396,2011],[82.478917,42.342728,2035],[82.480684,42.343421,2032],[82.483192,42.343801,2025],[82.486481,42.343267,2001],[82.488343,42.343544,2008],[82.489224,42.343417,1995],[82.489826,42.34297,1991],[82.490581,42.342818,1990],[82.492958,42.341361,1978],[82.495151,42.340369,1977],[82.495424,42.339696,1974],[82.497365,42.338109,1999],[82.497636,42.33733,1965],[82.498745,42.336658,1964],[82.499083,42.336074,2004],[82.498761,42.335644,1970],[82.499817,42.334858,1961],[82.499834,42.334225,1957],[82.500309,42.334061,1979],[82.500873,42.333492,1987],[82.502087,42.33314,2002],[82.503159,42.332212,2009],[82.503308,42.331476,2000],[82.502755,42.330711,1974],[82.502666,42.329816,1966],[82.503099,42.3293,1976],[82.503281,42.328049,2007],[82.503707,42.327696,2004],[82.503928,42.327247,2016],[82.503706,42.326445,2010],[82.504176,42.325871,1997],[82.505149,42.325531,1977],[82.50552,42.325096,1967],[82.505197,42.324339,1966],[82.504114,42.323437,1952],[82.504165,42.323164,1940],[82.50446,42.322542,1934],[82.504964,42.322092,1926],[82.506688,42.321181,1935],[82.508352,42.319865,1925],[82.508662,42.318846,1922],[82.509491,42.317273,1924],[82.510128,42.315111,1914],[82.510406,42.314755,1913],[82.510526,42.314979,1911]]}},{"type":"Feature","id":"start","properties":{"id":"start","name":"琼库什台方向起点","category":"起点","description":"乌孙古道北端徒步起点。","image":"/pics/14.webp"},"geometry":{"type":"Point","coordinates":[82.19876,42.91528,2023]}},{"type":"Feature","id":"end","properties":{"id":"end","name":"黑英山方向出口","category":"终点","description":"乌孙古道南端徒步终点。","image":"/pics/10.webp"},"geometry":{"type":"Point","coordinates":[82.510526,42.314979,1911]}},{"type":"Feature","id":"north-camp","properties":{"id":"north-camp","name":"北段商业营地","category":"营地","description":"轨迹记录中的北段补给与扎营位置。","image":"/pics/12.webp"},"geometry":{"type":"Point","coordinates":[82.27073,42.824154,2706]}},{"type":"Feature","id":"valley-camp","properties":{"id":"valley-camp","name":"河谷营地","category":"营地","description":"河谷中的平坦扎营区域。","image":"/pics/12.webp"},"geometry":{"type":"Point","coordinates":[82.339833,42.716478,2366]}},{"type":"Feature","id":"bridge","properties":{"id":"bridge","name":"科克苏河桥段","category":"河流","description":"轨迹记录中的重要过河节点。","image":"/pics/9.webp"},"geometry":{"type":"Point","coordinates":[82.326676,42.668209,1987]}},{"type":"Feature","id":"heaven-lake","properties":{"id":"heaven-lake","name":"天堂湖观景点","category":"景点","description":"从高处俯瞰天堂湖的核心景观位置。","image":"/pics/11.webp"},"geometry":{"type":"Point","coordinates":[82.401612,42.593914,3058]}},{"type":"Feature","id":"akbulak-pass","properties":{"id":"akbulak-pass","name":"阿克布拉克达坂方向垭口","category":"垭口","description":"轨迹最高段附近的垭口节点。","image":"/pics/1.webp"},"geometry":{"type":"Point","coordinates":[82.391358,42.547949,3814]}},{"type":"Feature","id":"visitor-center","properties":{"id":"visitor-center","name":"南段游客中心","category":"景点","description":"南段出山途中经过的游客服务节点。","image":"/pics/10.webp"},"geometry":{"type":"Point","coordinates":[82.410349,42.510818,3049]}}]}
